0 DIRECTV 7S
1 28238U 04016A   13281.41273721 -.00000010  00000-0  10000-3 0  8429
2 28238 000.0083 098.4717 0002417 090.9661 217.3057 01.00271507 34619
0 DIRECTV 7S
1 28238U 04016A   13283.09993473 -.00000015  00000-0  10000-3 0  8434
2 28238 000.0118 103.4232 0002856 095.4759 096.8984 01.00272273 34623
0 DIRECTV 7S
1 28238U 04016A   13285.40449076 -.00000022  00000-0  10000-3 0  8445
2 28238 000.0323 235.4947 0002856 323.4501 208.7572 01.00271520 34653
0 DIRECTV 7S
1 28238U 04016A   13287.37558743 -.00000025  00000-0  10000-3 0  8459
2 28238 000.0108 354.7854 0010359 153.2763 251.2801 01.00271793 34674
0 DIRECTV 7S
1 28238U 04016A   13288.38730818 -.00000025  00000-0  10000-3 0  8467
2 28238 000.0071 302.0829 0010973 205.2337 257.2495 01.00271976 34687
0 DIRECTV 7S
1 28238U 04016A   13289.39804244 -.00000023  00000-0  10000-3 0  8473
2 28238 000.0054 297.4796 0004107 245.8561 226.0026 01.00272688 34695
0 DIRECTV 7S
1 28238U 04016A   13290.40731365 -.00000021  00000-0  10000-3 0  8489
2 28238 000.0059 272.9615 0003038 290.5958 210.0982 01.00272786 34702
0 DIRECTV 7S
1 28238U 04016A   13292.41710506 -.00000017  00000-0  10000-3 0  8492
2 28238 000.0005 291.7838 0003150 272.7101 214.6701 01.00272855 34724
0 DIRECTV 7S
1 28238U 04016A   13294.33400404 -.00000014  00000-0  10000-3 0  8507
2 28238 000.0019 146.5737 0003130 057.8302 186.7350 01.00272944 34747
0 DIRECTV 7S
1 28238U 04016A   13294.62591451 -.00000013  00000-0  10000-3 0  8512
2 28238 000.0114 335.9803 0003514 234.8949 285.6321 01.00272758 34741
